[
    {
        "Altitude(m)": 607886.6819715266,
        "Argument of Periapsis(deg)": 0.0,
        "Eccentricity": 0.0,
        "Inclination(deg)": 60.0,
        "Latitude(deg)": 40.99841798439764,
        "Longitude(deg)": -140.02697770301347,
        "Mean Anomaly(deg)": 49.09089999999999,
        "RAAN(deg)": 290.0,
        "Satellite Name": "Test1 1279",
        "Satellite Number": 1279,
        "Semi-Major Axis(m)": 6980739.136638005,
        "Time(s)": 0
    },
    {
        "Altitude(m)": 607987.5958317446,
        "Argument of Periapsis(deg)": 0.00010418945913296404,
        "Eccentricity": 0.0,
        "Inclination(deg)": 60.0,
        "Latitude(deg)": 41.463507628286976,
        "Longitude(deg)": -139.52274932537492,
        "Mean Anomaly(deg)": 49.711006145461845,
        "RAAN(deg)": 289.99957995086027,
        "Satellite Name": "Test1 1279",
        "Satellite Number": 1279,
        "Semi-Major Axis(m)": 6980739.136638005,
        "Time(s)": 10
    }
]